IRIDIUM 166             
1 43570U 18061B   25329.50118468  .00000097  00000+0  27580-4 0  9990
2 43570  86.3965 141.9068 0002164  95.1398 265.0044 14.34218561384208
IRIDIUM 158             
1 43571U 18061C   25329.46947148  .00000048  00000+0  10091-4 0  9996
2 43571  86.3963 141.9298 0001845  87.8388 272.3019 14.34218095384164
IRIDIUM 165             
1 43572U 18061D   25329.42507494  .00000095  00000+0  27030-4 0  9992
2 43572  86.3974 141.9921 0002130  92.0435 268.1005 14.34217569384184
IRIDIUM 155             
1 43573U 18061E   25329.45678744  .00000113  00000+0  33259-4 0  9994
2 43573  86.3961 141.8569 0001835  94.5009 265.6397 14.34217326384157
IRIDIUM 154             
1 43574U 18061F   25329.50752778  .00000044  00000+0  84894-5 0  9996
2 43574  86.3966 141.9591 0002089  90.5433 269.6002 14.34217927384219
IRIDIUM 163             
1 43575U 18061G   25329.48850019  .00000089  00000+0  24686-4 0  9992
2 43575  86.3963 141.8888 0001984  86.6820 273.4603 14.34215750384182
IRIDIUM 156             
1 43576U 18061H   25329.46312939  .00000031  00000+0  39497-5 0  9999
2 43576  86.3962 141.9063 0001926  97.2878 262.8537 14.34217798384176
IRIDIUM 164             
1 43577U 18061J   25329.44411493  .00000092  00000+0  25924-4 0  9999
2 43577  86.3964 141.9515 0002179  93.6124 266.5321 14.34216384384213
